[{"OBJECT_NAME":"STARLINK-35452","OBJECT_ID":"2025-236U","EPOCH":"2026-03-09T08:51:25.444800","MEAN_MOTION":15.30188556,"ECCENTRICITY":0.00013357,"INCLINATION":53.159,"RA_OF_ASC_NODE":105.4911,"ARG_OF_PERICENTER":87.3218,"MEAN_ANOMALY":272.7936,"EPHEMERIS_TYPE":0,"CLASSIFICATION_TYPE":"U","NORAD_CAT_ID":66104,"ELEMENT_SET_NO":999,"REV_AT_EPOCH":2289,"BSTAR":0.00034143843,"MEAN_MOTION_DOT":9.763e-5,"MEAN_MOTION_DDOT":0},{"OBJECT_NAME":"OBJECT BD","OBJECT_ID":"2025-313BD","EPOCH":"2026-03-09T15:06:44.992224","MEAN_MOTION":15.3000236,"ECCENTRICITY":0.00072867,"INCLINATION":97.397,"RA_OF_ASC_NODE":145.285,"ARG_OF_PERICENTER":333.4514,"MEAN_ANOMALY":26.6352,"EPHEMERIS_TYPE":0,"CLASSIFICATION_TYPE":"U","NORAD_CAT_ID":67299,"ELEMENT_SET_NO":999,"REV_AT_EPOCH":1083,"BSTAR":0.0027633805,"MEAN_MOTION_DOT":0.0008101,"MEAN_MOTION_DDOT":0}]
